     2.100          NAVIGATION                              RINEX VERSION / TYPE
fic2rin                                 06/29/2009 01:50:47 PGM / RUN BY / DATE
                                                            END OF HEADER
10 09  6 28 22  0  0.0 -.182287767529D-04 -.568434188608D-12  .000000000000D+00
     .460000000000D+02  .478125000000D+01  .466019411579D-08  .130500875026D+01
     .286847352982D-06  .856828177348D-02  .496394932270D-05  .515362559700D+04
     .792000000000D+05 -.875443220139D-07  .496730849462D-01  .372529029846D-07
     .958153069504D+00  .284531250000D+03  .626428727877D+00 -.835820529566D-08
    -.229295265354D-09  .100000000000D+01  .153800000000D+04  .000000000000D+00
     .240000000000D+01  .000000000000D+00 -.279396772385D-08  .460000000000D+02
     .720060000000D+05  .400000000000D+01
11 09  6 28 22  0  0.0 -.841543078423D-05 -.159161572810D-11  .000000000000D+00
     .310000000000D+02  .656875000000D+02  .600846456238D-08 -.152281901991D+01
     .336207449436D-05  .944775156677D-02  .898167490959D-05  .515369002151D+04
     .792000000000D+05  .232830643654D-06 -.123647091536D+01 -.171363353729D-06
     .889012848828D+00  .167875000000D+03  .700751201260D+00 -.867107547081D-08
     .714315468392D-10  .100000000000D+01  .153800000000D+04  .000000000000D+00
     .240000000000D+01  .000000000000D+00 -.116415321827D-07  .310000000000D+02
     .720060000000D+05  .400000000000D+01
12 09  6 28 22  0  0.0 -.259136315435D-03  .602540239925D-11  .000000000000D+00
     .450000000000D+02 -.475312500000D+02  .476448417418D-08 -.134969815315D+01
    -.245310366154D-05  .328011345118D-02  .594183802605D-05  .515363071251D+04
     .792000000000D+05  .000000000000D+00 -.311020939764D+01 -.169500708580D-06
     .967614670658D+00  .266656250000D+03 -.659069515519D+00 -.829570269217D-08
    -.703600736366D-10  .100000000000D+01  .153800000000D+04  .000000000000D+00
     .240000000000D+01  .000000000000D+00 -.116415321827D-07  .450000000000D+02
     .720060000000D+05  .400000000000D+01
13 09  6 28 22  0  0.0  .300379469991D-03  .795807864051D-12  .000000000000D+00
     .590000000000D+02 -.315000000000D+02  .356336271407D-08  .949878857513D+00
    -.162422657013D-05  .415806157980D-02  .942498445511D-05  .515369347000D+04
     .792000000000D+05 -.335276126862D-07  .113138767084D+01 -.484287738800D-07
     .994706222353D+00  .212625000000D+03  .160708031881D+01 -.774496546604D-08
    -.357157734196D-11  .100000000000D+01  .153800000000D+04  .000000000000D+00
     .240000000000D+01  .000000000000D+00 -.111758708954D-07  .590000000000D+02
     .720060000000D+05  .400000000000D+01
14 09  6 28 22  0  0.0 -.878279097378D-04  .568434188608D-11  .000000000000D+00
     .630000000000D+02 -.110000000000D+02  .377944314326D-08  .854177401723D+00
    -.793486833572D-06  .454280641861D-02  .913627445698D-05  .515362215424D+04
     .792000000000D+05 -.316649675369D-07  .111167569382D+01  .391155481339D-07
     .988200227740D+00  .215062500000D+03 -.216553201704D+01 -.782782606038D-08
    -.307155651409D-10  .100000000000D+01  .153800000000D+04  .000000000000D+00
     .240000000000D+01  .000000000000D+00 -.931322574615D-08  .630000000000D+02
     .720060000000D+05  .400000000000D+01
15 09  6 28 22  0  0.0 -.304603483528D-03 -.284217094304D-11  .000000000000D+00
     .350000000000D+02 -.170000000000D+02  .443161316591D-08  .101448212450D+01
    -.845640897751D-06  .145607197192D-02  .843405723572D-05  .515363550568D+04
     .792000000000D+05  .372529029846D-07  .105817572051D+01  .000000000000D+00
     .956210438643D+00  .216187500000D+03 -.464994725971D+00 -.809605151876D-08
     .392873507616D-11  .100000000000D+01  .153800000000D+04  .000000000000D+00
     .240000000000D+01  .000000000000D+00 -.977888703346D-08  .350000000000D+02
     .720060000000D+05  .400000000000D+01
16 09  6 28 22  0  0.0  .377190299332D-04 -.352429196937D-11  .000000000000D+00
     .600000000000D+02 -.488125000000D+02  .479734268572D-08  .249816374239D+01
    -.231340527534D-05  .535749236587D-02  .630319118500D-05  .515356886673D+04
     .792000000000D+05 -.540167093277D-07 -.309322330953D+01  .208616256714D-06
     .969044885203D+00  .263625000000D+03 -.326518862170D+00 -.819605568433D-08
    -.101075638777D-09  .100000000000D+01  .153800000000D+04  .000000000000D+00
     .240000000000D+01  .000000000000D+00 -.977888703346D-08  .600000000000D+02
     .720060000000D+05  .400000000000D+01
17 09  6 28 22  0  0.0  .671758316457D-04  .227373675443D-11  .000000000000D+00
     .470000000000D+02 -.299062500000D+02  .451625954891D-08  .137477821296D+01
    -.139325857162D-05  .455327995587D-02  .108145177364D-04  .515370320892D+04
     .792000000000D+05 -.670552253723D-07 -.205106435931D+01  .298023223877D-07
     .959550170899D+00  .172812500000D+03 -.263134148452D+01 -.799283293357D-08
    -.327513642258D-09  .100000000000D+01  .153800000000D+04  .000000000000D+00
     .240000000000D+01  .000000000000D+00 -.102445483208D-07  .470000000000D+02
     .720060000000D+05  .400000000000D+01
18 09  6 28 22  0  0.0 -.443360768259D-04  .318323145621D-11  .000000000000D+00
     .310000000000D+02 -.268750000000D+01  .488306054193D-08  .269209689367D+01
    -.931322574615D-07  .105890951818D-01  .510364770889D-05  .515360582352D+04
     .792000000000D+05 -.130385160446D-07  .546319368966D-01 -.188127160072D-06
     .942189199791D+00  .270468750000D+03 -.241228822896D+01 -.827677333226D-08
    -.115004790411D-09  .100000000000D+01  .153800000000D+04  .000000000000D+00
     .240000000000D+01  .000000000000D+00 -.107102096081D-07  .310000000000D+02
     .720060000000D+05  .400000000000D+01
19 09  6 28 22  0  0.0  .209151767194D-04 -.136424205266D-11  .000000000000D+00
     .650000000000D+02 -.203125000000D+02  .459947730098D-08  .770812365440D+00
    -.119768083096D-05  .571407563984D-02  .107847154140D-04  .515362395287D+04
     .792000000000D+05  .117346644402D-06 -.199509488520D+01 -.167638063431D-07
     .957225447779D+00  .163156250000D+03 -.339377543431D+00 -.803890628129D-08
    -.342157109360D-09  .100000000000D+01  .153800000000D+04  .000000000000D+00
     .240000000000D+01  .000000000000D+00 -.144354999065D-07  .650000000000D+02
     .720060000000D+05  .400000000000D+01
20 09  6 28 22  0  0.0  .787102617323D-04 -.102318153949D-11  .000000000000D+00
     .470000000000D+02  .953125000000D+01  .499342228180D-08  .284394837985D+01
     .555068254471D-06  .389546668157D-02  .445917248726D-05  .515357978821D+04
     .792000000000D+05 -.745058059692D-08  .801256324113D-03  .875443220139D-07
     .941846416141D+00  .283000000000D+03  .136646823994D+01 -.840642158977D-08
    -.108933108930D-09  .100000000000D+01  .153800000000D+04  .000000000000D+00
     .240000000000D+01  .000000000000D+00 -.651925802231D-08  .470000000000D+02
     .720060000000D+05  .400000000000D+01
21 09  6 28 22  0  0.0  .574393197894D-05 -.216004991671D-11  .000000000000D+00
     .790000000000D+02  .675625000000D+02  .502770942428D-08 -.231097806668D+01
     .333413481712D-05  .154259208357D-01  .740401446819D-05  .515360478973D+04
     .792000000000D+05  .167638063431D-07 -.100341779565D+01 -.132247805595D-06
     .933670449339D+00  .222781250000D+03 -.258583815205D+01 -.816712590786D-08
     .234295473633D-09  .100000000000D+01  .153800000000D+04  .000000000000D+00
     .240000000000D+01  .000000000000D+00 -.121071934700D-07  .790000000000D+02
     .720060000000D+05  .400000000000D+01
22 09  6 28 22  0  0.0  .196560751647D-03 -.909494701773D-12  .000000000000D+00
     .130000000000D+02 -.162500000000D+01  .510592696807D-08  .166310461139D+01
    -.465661287308D-07  .511161412578D-02  .500492751598D-05  .515365667725D+04
     .792000000000D+05 -.968575477600D-07  .602494984334D-01 -.145286321640D-06
     .939853566228D+00  .270656250000D+03 -.189332303036D+01 -.854464163291D-08
    -.144648882349D-09  .100000000000D+01  .153800000000D+04  .000000000000D+00
     .240000000000D+01  .000000000000D+00 -.176951289177D-07  .130000000000D+02
     .720060000000D+05  .400000000000D+01
23 09  6 28 22  0  0.0  .390191562474D-03  .000000000000D+00  .000000000000D+00
     .106000000000D+03 -.300625000000D+02  .417803117463D-08  .233875585423D+00
    -.147148966789D-05  .626267446205D-02  .922381877899D-05  .515360017014D+04
     .792000000000D+05  .102445483208D-06  .107859174148D+01 -.465661287308D-07
     .970194924604D+00  .205343750000D+03  .290084878628D+01 -.806212153401D-08
    -.110718897601D-10  .100000000000D+01  .153800000000D+04  .000000000000D+00
     .240000000000D+01  .000000000000D+00 -.200234353542D-07  .106000000000D+03
     .720060000000D+05  .400000000000D+01
24 09  6 28 22  0  0.0  .200446229428D-03  .295585778076D-11  .000000000000D+00
     .129000000000D+03  .686250000000D+02  .464090759814D-08  .260986042847D+01
     .362098217010D-05  .666014244780D-02  .778585672379D-05  .515367543411D+04
     .792000000000D+05 -.447034835815D-07 -.970732517740D+00  .353902578354D-07
     .950319713728D+00  .226906250000D+03 -.650171547443D+00 -.804390648956D-08
    -.214294640518D-10  .100000000000D+01  .153800000000D+04  .000000000000D+00
     .340000000000D+01  .000000000000D+00 -.139698386192D-08  .129000000000D+03
     .720060000000D+05  .400000000000D+01
25 09  6 28 22  0  0.0  .484013464302D-03  .180762071977D-10  .000000000000D+00
     .730000000000D+02  .161875000000D+02  .435160983345D-08  .310950618024D+01
     .795349478722D-06  .113276719349D-01  .814348459244D-05  .515365033531D+04
     .792000000000D+05  .214204192162D-06  .202639779914D+01  .189989805222D-06
     .969933305113D+00  .222531250000D+03 -.120852620447D+01 -.789461455667D-08
     .448590114150D-09  .100000000000D+01  .153800000000D+04  .000000000000D+00
     .340000000000D+01  .630000000000D+02 -.745058059692D-08  .730000000000D+02
     .720060000000D+05  .400000000000D+01
